ONEWEB-0588             
1 55153U 23004P   24207.26540417  .00000076  00000+0  15983-3 0  9993
2 55153  87.9145 113.2562 0001837  93.5702 266.5641 13.18685376 78508
ONEWEB-0598             
1 55154U 23004Q   24207.91149828 -.00000449  00000+0 -13023-2 0  9995
2 55154  87.8992 158.6925 0001326  85.4608 274.6671 13.11418583 75295
ONEWEB-0614             
1 55156U 23004S   24207.83013170 -.00000259  00000+0 -76744-3 0  9997
2 55156  87.8992 158.7130 0002436  87.4024 272.7383 13.11419147 75222
ONEWEB-0617             
1 55158U 23004U   24207.81825726 -.00000507  00000+0 -14663-2 0  9992
2 55158  87.8986 158.7091 0002218  93.2062 266.9320 13.11417283 75245
ONEWEB-0619             
1 55160U 23004W   24207.39665986  .00000095  00000+0  21232-3 0  9999
2 55160  87.9191 143.5879 0002555  69.8769 290.2637 13.17648545 76492
